0 RESURS O1 DEB
1 23346U 94074E   13283.43284333  .00000586  00000-0  19501-3 0  7018
2 23346 098.1649 092.6865 0185361 197.6460 193.1685 14.31887740987426
0 RESURS O1 DEB
1 23346U 94074E   13285.46390913  .00000516  00000-0  17324-3 0  7020
2 23346 098.1649 094.5997 0185460 191.5924 222.8884 14.31890003987710
0 RESURS O1 DEB
1 23346U 94074E   13288.06277620  .00000872  00000-0  28322-3 0  7034
2 23346 098.1652 097.0478 0185582 183.8428 299.5380 14.31894412988085
0 RESURS O1 DEB
1 23346U 94074E   13290.70630907  .00000694  00000-0  22790-3 0  7045
2 23346 098.1656 099.5378 0185739 175.9616 246.4748 14.31898802988468
0 RESURS O1 DEB
1 23346U 94074E   13292.96153538  .00000764  00000-0  24930-3 0  7052
2 23346 098.1657 101.6623 0185888 169.2384 351.7955 14.31901994988782
0 RESURS O1 DEB
1 23346U 94074E   13295.45663508  .00000797  00000-0  25932-3 0  7062
2 23346 098.1657 104.0128 0185987 161.8114 253.6476 14.31907152989149
